{
 "generated_at": "2026-07-03T08:09:24Z",
 "sources": [
  {
   "name": "CelesTrak",
   "url": "https://celestrak.org/NORAD/elements/",
   "license": "frei verfügbar; Attribution. Ursprünglich USSPACECOM/Space-Track."
  },
  {
   "name": "GCAT (J. McDowell, planet4589.org)",
   "url": "https://planet4589.org/space/gcat/",
   "license": "CC-BY 4.0"
  }
 ],
 "satellites": [
  {
   "norad": 58990,
   "name": "INSAT-3DS",
   "intl": "2024-033A",
   "group": "weather",
   "gcat": {
    "class": "C",
    "category": "MET",
    "owner": "ISRO",
    "state": "IN"
   },
   "omm": {
    "OBJECT_NAME": "INSAT-3DS",
    "OBJECT_ID": "2024-033A",
    "EPOCH": "2026-07-02T09:14:20.850720",
    "MEAN_MOTION": 1.00269425,
    "ECCENTRICITY": 0.0001431,
    "INCLINATION": 0.0716,
    "RA_OF_ASC_NODE": 96.8706,
    "ARG_OF_PERICENTER": 355.3676,
    "MEAN_ANOMALY": 48.8097,
    "EPHEMERIS_TYPE": 0,
    "CLASSIFICATION_TYPE": "U",
    "NORAD_CAT_ID": 58990,
    "ELEMENT_SET_NO": 999,
    "REV_AT_EPOCH": 4722,
    "BSTAR": 0,
    "MEAN_MOTION_DOT": -0.00000144,
    "MEAN_MOTION_DDOT": 0
   }
  },
  {
   "norad": 61735,
   "name": "IONOSFERA-M 1",
   "intl": "2024-199A",
   "group": "resource",
   "gcat": {
    "class": "C",
    "category": "SCI",
    "owner": "VNIIEMI",
    "state": "RU"
   },
   "omm": {
    "OBJECT_NAME": "IONOSFERA-M 1",
    "OBJECT_ID": "2024-199A",
    "EPOCH": "2026-07-02T17:39:33.769728",
    "MEAN_MOTION": 14.22757256,
    "ECCENTRICITY": 0.000221,
    "INCLINATION": 98.7152,
    "RA_OF_ASC_NODE": 56.7425,
    "ARG_OF_PERICENTER": 89.7022,
    "MEAN_ANOMALY": 270.4409,
    "EPHEMERIS_TYPE": 0,
    "CLASSIFICATION_TYPE": "U",
    "NORAD_CAT_ID": 61735,
    "ELEMENT_SET_NO": 999,
    "REV_AT_EPOCH": 12991,
    "BSTAR": 0.000055997,
    "MEAN_MOTION_DOT": 8.2e-7,
    "MEAN_MOTION_DDOT": 0
   }
  },
  {
   "norad": 61736,
   "name": "IONOSFERA-M 2",
   "intl": "2024-199B",
   "group": "resource",
   "gcat": {
    "class": "C",
    "category": "SCI",
    "owner": "VNIIEMI",
    "state": "RU"
   },
   "omm": {
    "OBJECT_NAME": "IONOSFERA-M 2",
    "OBJECT_ID": "2024-199B",
    "EPOCH": "2026-07-02T18:28:53.633280",
    "MEAN_MOTION": 14.22760625,
    "ECCENTRICITY": 0.0000404,
    "INCLINATION": 98.7151,
    "RA_OF_ASC_NODE": 56.6868,
    "ARG_OF_PERICENTER": 52.6346,
    "MEAN_ANOMALY": 307.4869,
    "EPHEMERIS_TYPE": 0,
    "CLASSIFICATION_TYPE": "U",
    "NORAD_CAT_ID": 61736,
    "ELEMENT_SET_NO": 999,
    "REV_AT_EPOCH": 13304,
    "BSTAR": 0.000057814,
    "MEAN_MOTION_DOT": 8.6e-7,
    "MEAN_MOTION_DDOT": 0
   }
  },
  {
   "norad": 64876,
   "name": "IONOSFERA-M 3",
   "intl": "2025-155A",
   "group": "resource",
   "gcat": {
    "class": "C",
    "category": "SCI",
    "owner": "VNIIEMI",
    "state": "RU"
   },
   "omm": {
    "OBJECT_NAME": "IONOSFERA-M 3",
    "OBJECT_ID": "2025-155A",
    "EPOCH": "2026-07-02T19:14:28.555296",
    "MEAN_MOTION": 14.21489141,
    "ECCENTRICITY": 0.0001836,
    "INCLINATION": 98.6039,
    "RA_OF_ASC_NODE": 145.3142,
    "ARG_OF_PERICENTER": 130.9929,
    "MEAN_ANOMALY": 229.1407,
    "EPHEMERIS_TYPE": 0,
    "CLASSIFICATION_TYPE": "U",
    "NORAD_CAT_ID": 64876,
    "ELEMENT_SET_NO": 999,
    "REV_AT_EPOCH": 4862,
    "BSTAR": 0.000050908,
    "MEAN_MOTION_DOT": 6.8e-7,
    "MEAN_MOTION_DDOT": 0
   }
  },
  {
   "norad": 64877,
   "name": "IONOSFERA-M 4",
   "intl": "2025-155B",
   "group": "resource",
   "gcat": {
    "class": "C",
    "category": "SCI",
    "owner": "VNIIEMI",
    "state": "RU"
   },
   "omm": {
    "OBJECT_NAME": "IONOSFERA-M 4",
    "OBJECT_ID": "2025-155B",
    "EPOCH": "2026-07-02T18:23:15.019584",
    "MEAN_MOTION": 14.21491454,
    "ECCENTRICITY": 0.0001557,
    "INCLINATION": 98.6038,
    "RA_OF_ASC_NODE": 145.1967,
    "ARG_OF_PERICENTER": 111.3822,
    "MEAN_ANOMALY": 248.7522,
    "EPHEMERIS_TYPE": 0,
    "CLASSIFICATION_TYPE": "U",
    "NORAD_CAT_ID": 64877,
    "ELEMENT_SET_NO": 999,
    "REV_AT_EPOCH": 4861,
    "BSTAR": 0.000046417,
    "MEAN_MOTION_DOT": 5.9e-7,
    "MEAN_MOTION_DDOT": 0
   }
  },
  {
   "norad": 28649,
   "name": "IRS-P5 (CARTOSAT-1)",
   "intl": "2005-017A",
   "group": "resource",
   "gcat": {
    "class": null,
    "category": null,
    "owner": null,
    "state": null
   },
   "omm": {
    "OBJECT_NAME": "IRS-P5 (CARTOSAT-1)",
    "OBJECT_ID": "2005-017A",
    "EPOCH": "2026-07-02T12:18:48.792672",
    "MEAN_MOTION": 14.91090758,
    "ECCENTRICITY": 0.0002108,
    "INCLINATION": 97.5305,
    "RA_OF_ASC_NODE": 205.8823,
    "ARG_OF_PERICENTER": 62.0385,
    "MEAN_ANOMALY": 298.1047,
    "EPHEMERIS_TYPE": 0,
    "CLASSIFICATION_TYPE": "U",
    "NORAD_CAT_ID": 28649,
    "ELEMENT_SET_NO": 999,
    "REV_AT_EPOCH": 14610,
    "BSTAR": 0.00015672,
    "MEAN_MOTION_DOT": 0.000015,
    "MEAN_MOTION_DDOT": 0
   }
  },
  {
   "norad": 41240,
   "name": "JASON-3",
   "intl": "2016-002A",
   "group": "resource",
   "gcat": {
    "class": "C",
    "category": "SCI/MET",
    "owner": "CNES/NOAA",
    "state": "F"
   },
   "omm": {
    "OBJECT_NAME": "JASON-3",
    "OBJECT_ID": "2016-002A",
    "EPOCH": "2026-07-02T18:28:26.435424",
    "MEAN_MOTION": 12.87623278,
    "ECCENTRICITY": 0.0008308,
    "INCLINATION": 66.0417,
    "RA_OF_ASC_NODE": 93.0758,
    "ARG_OF_PERICENTER": 271.8824,
    "MEAN_ANOMALY": 88.1243,
    "EPHEMERIS_TYPE": 0,
    "CLASSIFICATION_TYPE": "U",
    "NORAD_CAT_ID": 41240,
    "ELEMENT_SET_NO": 999,
    "REV_AT_EPOCH": 48925,
    "BSTAR": 0.000099072,
    "MEAN_MOTION_DOT": -3.7e-7,
    "MEAN_MOTION_DDOT": 0
   }
  },
  {
   "norad": 39731,
   "name": "KAZEOSAT 1",
   "intl": "2014-024A",
   "group": "resource",
   "gcat": {
    "class": "C",
    "category": "IMG",
    "owner": "KAZK",
    "state": "KZ"
   },
   "omm": {
    "OBJECT_NAME": "KAZEOSAT 1",
    "OBJECT_ID": "2014-024A",
    "EPOCH": "2026-07-02T18:31:38.381664",
    "MEAN_MOTION": 14.4208661,
    "ECCENTRICITY": 0.0001155,
    "INCLINATION": 98.3205,
    "RA_OF_ASC_NODE": 255.8317,
    "ARG_OF_PERICENTER": 77.7286,
    "MEAN_ANOMALY": 282.4033,
    "EPHEMERIS_TYPE": 0,
    "CLASSIFICATION_TYPE": "U",
    "NORAD_CAT_ID": 39731,
    "ELEMENT_SET_NO": 999,
    "REV_AT_EPOCH": 64080,
    "BSTAR": 0.00011181,
    "MEAN_MOTION_DOT": 0.00000325,
    "MEAN_MOTION_DDOT": 0
   }
  },
  {
   "norad": 40010,
   "name": "KAZEOSAT 2",
   "intl": "2014-033A",
   "group": "resource",
   "gcat": {
    "class": "C",
    "category": "IMG",
    "owner": "KAZK",
    "state": "KZ"
   },
   "omm": {
    "OBJECT_NAME": "KAZEOSAT 2",
    "OBJECT_ID": "2014-033A",
    "EPOCH": "2026-07-02T18:57:51.926112",
    "MEAN_MOTION": 14.85490275,
    "ECCENTRICITY": 0.0006936,
    "INCLINATION": 97.5394,
    "RA_OF_ASC_NODE": 22.577,
    "ARG_OF_PERICENTER": 269.1496,
    "MEAN_ANOMALY": 90.8925,
    "EPHEMERIS_TYPE": 0,
    "CLASSIFICATION_TYPE": "U",
    "NORAD_CAT_ID": 40010,
    "ELEMENT_SET_NO": 999,
    "REV_AT_EPOCH": 65127,
    "BSTAR": 0.00013571,
    "MEAN_MOTION_DOT": 0.00001121,
    "MEAN_MOTION_DDOT": 0
   }
  },
  {
   "norad": 43783,
   "name": "KAZSTSAT",
   "intl": "2018-099AB",
   "group": "resource",
   "gcat": {
    "class": "B",
    "category": "IMG",
    "owner": "GHALAM",
    "state": "KZ"
   },
   "omm": {
    "OBJECT_NAME": "KAZSTSAT",
    "OBJECT_ID": "2018-099AB",
    "EPOCH": "2026-07-02T13:47:58.884576",
    "MEAN_MOTION": 14.9992273,
    "ECCENTRICITY": 0.0008299,
    "INCLINATION": 97.4302,
    "RA_OF_ASC_NODE": 214.8068,
    "ARG_OF_PERICENTER": 26.1477,
    "MEAN_ANOMALY": 334.0165,
    "EPHEMERIS_TYPE": 0,
    "CLASSIFICATION_TYPE": "U",
    "NORAD_CAT_ID": 43783,
    "ELEMENT_SET_NO": 999,
    "REV_AT_EPOCH": 41361,
    "BSTAR": 0.00017615,
    "MEAN_MOTION_DOT": 0.00002131,
    "MEAN_MOTION_DDOT": 0
   }
  }
 ]
}
